[{"OBJECT_NAME":"STARLINK-4021","OBJECT_ID":"2022-083T","EPOCH":"2026-03-09T12:36:59.387040","MEAN_MOTION":15.08842093,"ECCENTRICITY":0.00013833,"INCLINATION":53.2174,"RA_OF_ASC_NODE":165.0594,"ARG_OF_PERICENTER":89.0535,"MEAN_ANOMALY":271.0615,"EPHEMERIS_TYPE":0,"CLASSIFICATION_TYPE":"U","NORAD_CAT_ID":53149,"ELEMENT_SET_NO":999,"REV_AT_EPOCH":20133,"BSTAR":1.5872904e-5,"MEAN_MOTION_DOT":-3.5e-7,"MEAN_MOTION_DDOT":0},{"OBJECT_NAME":"PSLV DEB","OBJECT_ID":"2001-049CG","EPOCH":"2026-03-09T17:57:10.653408","MEAN_MOTION":15.10779615,"ECCENTRICITY":0.00259315,"INCLINATION":97.9011,"RA_OF_ASC_NODE":146.9612,"ARG_OF_PERICENTER":307.1678,"MEAN_ANOMALY":170.9563,"EPHEMERIS_TYPE":0,"CLASSIFICATION_TYPE":"U","NORAD_CAT_ID":27136,"ELEMENT_SET_NO":999,"REV_AT_EPOCH":32989,"BSTAR":0.00047952924,"MEAN_MOTION_DOT":7.956e-5,"MEAN_MOTION_DDOT":0}]
